{
  "version": 1,
  "fetchedAt": "2026-06-16T16:59:36.124Z",
  "source": "celestrak-gp",
  "counts": {
    "station": 25,
    "satellite": 400,
    "debris": 250
  },
  "objects": [
    {
      "id": "20580",
      "name": "HST",
      "noradId": 20580,
      "line1": "1 20580U 90037B   26167.16527473  .00005381  00000+0  16841-3 0  9990",
      "line2": "2 20580  28.4719  87.5586 0001852 131.7056 228.3698 15.30736864788415",
      "category": "satellite"
    },
    {
      "id": "25994",
      "name": "TERRA",
      "noradId": 25994,
      "line1": "1 25994U 99068A   26167.26488625  .00000320  00000+0  74040-4 0  9997",
      "line2": "2 25994  97.9457 216.8477 0001510 192.7850 231.8615 14.61102450409470",
      "category": "satellite"
    },
    {
      "id": "23802",
      "name": "POLAR",
      "noradId": 23802,
      "line1": "1 23802U 96013A   26166.49652623  .00000145  00000+0  00000+0 0  9990",
      "line2": "2 23802  79.8518 227.0721 6468762 209.1369  89.7315  1.29846135144837",
      "category": "satellite"
    },
    {
      "id": "25560",
      "name": "SWAS",
      "noradId": 25560,
      "line1": "1 25560U 98071A   26167.28683070  .00002559  00000+0  16517-3 0  9992",
      "line2": "2 25560  69.8951 229.8413 0008674 260.9858  99.0325 15.09622305497135",
      "category": "satellite"
    },
    {
      "id": "25867",
      "name": "CXO",
      "noradId": 25867,
      "line1": "1 25867U 99040B   26169.37713324  .00000529  00000+0  00000+0 0  9998",
      "line2": "2 25867  56.2189 116.5542 7835469 310.3049   0.1821  0.37804062 17322",
      "category": "satellite"
    },
    {
      "id": "25989",
      "name": "XMM-NEWTON",
      "noradId": 25989,
      "line1": "1 25989U 99066A   26169.34668136 -.00000002  00000+0  00000+0 0  9995",
      "line2": "2 25989  64.4794 282.9700 4673195  64.9038   0.0897  0.50127427 23010",
      "category": "satellite"
    },
    {
      "id": "26410",
      "name": "CLUSTER II-FM7 (SAMBA)",
      "noradId": 26410,
      "line1": "1 26410U 00041A   26168.13893488  .00013373  00000+0  00000+0 0  9990",
      "line2": "2 26410 149.9159  50.9864 9054007 268.1291 359.6411  0.44868040 20307",
      "category": "satellite"
    },
    {
      "id": "26464",
      "name": "CLUSTER II-FM8 (TANGO)",
      "noradId": 26464,
      "line1": "1 26464U 00045B   26166.18659913  .00011723  00000+0  00000+0 0  9996",
      "line2": "2 26464 150.1471  51.6871 9056658 268.6526   2.8141  0.44404213 20308",
      "category": "satellite"
    },
    {
      "id": "26702",
      "name": "ODIN",
      "noradId": 26702,
      "line1": "1 26702U 01007A   26167.07828886  .00158692  00000+0  10319-2 0  9990",
      "line2": "2 26702  97.3827 207.9489 0006782 144.4595 215.7123 15.75459520389227",
      "category": "satellite"
    },
    {
      "id": "26998",
      "name": "TIMED",
      "noradId": 26998,
      "line1": "1 26998U 01055B   26167.27221961  .00000911  00000+0  86284-4 0  9999",
      "line2": "2 26998  74.0674 236.8607 0001067 336.9086  23.2050 14.95293318330682",
      "category": "satellite"
    },
    {
      "id": "27640",
      "name": "CORIOLIS",
      "noradId": 27640,
      "line1": "1 27640U 03001A   26167.28113534  .00000077  00000+0  56838-4 0  9999",
      "line2": "2 27640  98.7125 174.1797 0013315 211.5347 148.5033 14.19944562214090",
      "category": "satellite"
    },
    {
      "id": "27651",
      "name": "SORCE",
      "noradId": 27651,
      "line1": "1 27651U 03004A   26167.01051746  .00002317  00000+0  17651-3 0  9999",
      "line2": "2 27651  39.9909 268.3919 0016609  40.1651 320.0368 15.03708358271720",
      "category": "satellite"
    },
    {
      "id": "27843",
      "name": "MOST",
      "noradId": 27843,
      "line1": "1 27843U 03031D   26167.29612756  .00000043  00000+0  39693-4 0  9991",
      "line2": "2 27843  98.7044 175.0346 0008721 253.2998 106.7222 14.21322304190585",
      "category": "satellite"
    },
    {
      "id": "27858",
      "name": "SCISAT 1",
      "noradId": 27858,
      "line1": "1 27858U 03036A   26167.28022064  .00000405  00000+0  56414-4 0  9990",
      "line2": "2 27858  73.9285 173.1449 0008568 242.8582 117.1721 14.81446810231310",
      "category": "satellite"
    },
    {
      "id": "28485",
      "name": "SWIFT",
      "noradId": 28485,
      "line1": "1 28485U 04047A   26166.40597521  .00042527  00000+0  35480-3 0  9998",
      "line2": "2 28485  20.5516 198.6409 0001619 255.9834 104.0432 15.68175033186589",
      "category": "satellite"
    },
    {
      "id": "29479",
      "name": "HINODE (SOLAR-B)",
      "noradId": 29479,
      "line1": "1 29479U 06041A   26167.29965752  .00000573  00000+0  10686-3 0  9997",
      "line2": "2 29479  98.0548 183.4654 0016043 292.8660  67.0851 14.68622046 54741",
      "category": "satellite"
    },
    {
      "id": "29505",
      "name": "SHIJIAN-6 02A (SJ-6 02A)",
      "noradId": 29505,
      "line1": "1 29505U 06046A   26167.30001997  .00004277  00000+0  22035-3 0  9992",
      "line2": "2 29505  97.6357 208.3592 0004374 126.3776 233.7861 15.16934207 72130",
      "category": "satellite"
    },
    {
      "id": "29506",
      "name": "SHIJIAN-6 02B (SJ-6 02B)",
      "noradId": 29506,
      "line1": "1 29506U 06046B   26167.34662944  .00001345  00000+0  10882-3 0  9992",
      "line2": "2 29506  97.7156 196.4105 0015336  62.8561 297.4225 15.01376257 70613",
      "category": "satellite"
    },
    {
      "id": "33053",
      "name": "FGRST (GLAST)",
      "noradId": 33053,
      "line1": "1 33053U 08029A   26166.52614450  .00002502  00000+0  87010-4 0  9999",
      "line2": "2 33053  25.5806 216.0172 0007642 308.9336  51.0521 15.23940833995580",
      "category": "satellite"
    },
    {
      "id": "36395",
      "name": "SDO",
      "noradId": 36395,
      "line1": "1 36395U 10005A   26167.20324522 -.00000097  00000+0  00000+0 0  9999",
      "line2": "2 36395  34.6501  86.3565 0001763  46.4520 102.7529  1.00269936 60051",
      "category": "satellite"
    },
    {
      "id": "36508",
      "name": "CRYOSAT 2",
      "noradId": 36508,
      "line1": "1 36508U 10013A   26167.32338601  .00000190  00000+0  46477-4 0  9996",
      "line2": "2 36508  92.0354 277.0915 0002155  89.1957 270.9497 14.51898891857956",
      "category": "satellite"
    },
    {
      "id": "37389",
      "name": "X-SAT",
      "noradId": 37389,
      "line1": "1 37389U 11015C   26167.24265060  .00000049  00000+0  38421-4 0  9999",
      "line2": "2 37389  98.3503 144.3111 0013989 351.3500   8.7438 14.25206196787549",
      "category": "satellite"
    },
    {
      "id": "38337",
      "name": "GCOM-W1 (SHIZUKU)",
      "noradId": 38337,
      "line1": "1 38337U 12025A   26167.28896080  .00000389  00000+0  96284-4 0  9999",
      "line2": "2 38337  98.2021 107.8582 0001795  75.6819  45.9494 14.57123952748909",
      "category": "satellite"
    },
    {
      "id": "38358",
      "name": "NUSTAR",
      "noradId": 38358,
      "line1": "1 38358U 12031A   26167.33335648  .00010251  00000+0  57913-3 0  9997",
      "line2": "2 38358   6.0287  40.5388 0006336  97.8047  20.2221 15.08797194  1307",
      "category": "satellite"
    },
    {
      "id": "39089",
      "name": "NEOSSAT",
      "noradId": 39089,
      "line1": "1 39089U 13009D   26167.23390362  .00000118  00000+0  55465-4 0  9990",
      "line2": "2 39089  98.4176 347.2892 0009873 246.9525 113.0621 14.35826104696606",
      "category": "satellite"
    },
    {
      "id": "39091",
      "name": "BRITE-AUSTRIA",
      "noradId": 39091,
      "line1": "1 39091U 13009F   26167.09370097  .00000142  00000+0  62862-4 0  9996",
      "line2": "2 39091  98.3994 346.5565 0009106 240.1939 119.8342 14.36541737696891",
      "category": "satellite"
    },
    {
      "id": "39197",
      "name": "IRIS",
      "noradId": 39197,
      "line1": "1 39197U 13033A   26167.28944845  .00000847  00000+0  10321-3 0  9993",
      "line2": "2 39197  97.9329   6.5693 0023611 324.8887  35.0770 14.85883837700242",
      "category": "satellite"
    },
    {
      "id": "39253",
      "name": "HISAKI (SPRINT-A)",
      "noradId": 39253,
      "line1": "1 39253U 13049A   26166.87673529  .00000124  00000+0  82855-4 0  9995",
      "line2": "2 39253  29.7186 226.6759 0136868   6.2272 353.9971 13.55544631631245",
      "category": "satellite"
    },
    {
      "id": "39265",
      "name": "CASSIOPE",
      "noradId": 39265,
      "line1": "1 39265U 13055A   26167.24355660  .00043153 -53365-6  47165-3 0  9993",
      "line2": "2 39265  80.9153  67.8681 0292985  65.6006 297.5500 15.25108908667520",
      "category": "satellite"
    },
    {
      "id": "39422",
      "name": "STSAT-3",
      "noradId": 39422,
      "line1": "1 39422U 13066G   26167.24716207  .00002866  00000+0  21864-3 0  9992",
      "line2": "2 39422  97.6219 137.1504 0011179  47.5472 312.6697 15.02753651684068",
      "category": "satellite"
    },
    {
      "id": "39451",
      "name": "SWARM B",
      "noradId": 39451,
      "line1": "1 39451U 13067A   26167.28277326  .00002845  00000+0  10124-3 0  9997",
      "line2": "2 39451  87.7435 342.5914 0003300  85.9501 274.2125 15.28546487683101",
      "category": "satellite"
    }
  ]
}